{
  "type": "FeatureCollection",
  "features": [
    {
      "type": "Feature",
      "properties": {
        "norad_id": 34918,
        "name": "COSMOS 2251 DEB",
        "group": "cosmos-2251-debris",
        "lat": 18.369968369669074,
        "lon": 136.1360666541228,
        "alt_km": 704.737010403861,
        "timestamp": "2025-12-08T13:49:32.189709+00:00",
        "meta_object_name": "COSMOS 2251 DEB",
        "meta_object_id": "1993-036ADP",
        "meta_epoch": "2025-12-02T07:49:20.078112",
        "meta_mean_motion": 14.60858458,
        "meta_eccentricity": 0.0034182,
        "meta_inclination": 74.0712,
        "meta_ra_of_asc_node": 333.4916,
        "meta_arg_of_pericenter": 302.4495,
        "meta_mean_anomaly": 120.4085,
        "meta_ephemeris_type": 0,
        "meta_classification_type": "U",
        "meta_norad_cat_id": 34918,
        "meta_element_set_no": 999,
        "meta_rev_at_epoch": 65184,
        "meta_bstar": 0.0024749,
        "meta_mean_motion_dot": 0.00012194,
        "meta_mean_motion_ddot": 0,
        "tle_line1": "1 34918U 93036ADP 25336.32592683  .00012194  00000+0  24749-2 0  9997",
        "tle_line2": "2 34918  74.0712 333.4916 0034182 302.4495 120.4085 14.60858458651845"
      },
      "geometry": {
        "type": "Point",
        "coordinates": [
          136.1360666541228,
          18.369968369669074
        ]
      }
    },
    {
      "type": "Feature",
      "properties": {
        "norad_id": 34924,
        "name": "COSMOS 2251 DEB",
        "group": "cosmos-2251-debris",
        "lat": 4.953595660323595,
        "lon": -84.0290584524403,
        "alt_km": 656.864899260273,
        "timestamp": "2025-12-08T13:49:32.189720+00:00",
        "meta_object_name": "COSMOS 2251 DEB",
        "meta_object_id": "1993-036ADV",
        "meta_epoch": "2025-12-07T17:51:59.025024",
        "meta_mean_motion": 14.5995474,
        "meta_eccentricity": 0.00548404,
        "meta_inclination": 74.0409,
        "meta_ra_of_asc_node": 98.9779,
        "meta_arg_of_pericenter": 184.8528,
        "meta_mean_anomaly": 300.8119,
        "meta_ephemeris_type": 0,
        "meta_classification_type": "U",
        "meta_norad_cat_id": 34924,
        "meta_element_set_no": 999,
        "meta_rev_at_epoch": 87650,
        "meta_bstar": 0.0019218661,
        "meta_mean_motion_dot": 9.392e-05,
        "meta_mean_motion_ddot": 0,
        "tle_line1": "1 34924U 93036ADV 25341.74443316  .00009392  00000+0  19219-2 0  9996",
        "tle_line2": "2 34924  74.0409  98.9779 0054840 184.8528 300.8119 14.59954740876500"
      },
      "geometry": {
        "type": "Point",
        "coordinates": [
          -84.0290584524403,
          4.953595660323595
        ]
      }
    },
    {
      "type": "Feature",
      "properties": {
        "norad_id": 34944,
        "name": "COSMOS 2251 DEB",
        "group": "cosmos-2251-debris",
        "lat": -62.20430585974117,
        "lon": 93.14365115553915,
        "alt_km": 999.7140155175084,
        "timestamp": "2025-12-08T13:49:32.189730+00:00",
        "meta_object_name": "COSMOS 2251 DEB",
        "meta_object_id": "1993-036ADX",
        "meta_epoch": "2025-12-07T09:30:46.029312",
        "meta_mean_motion": 14.14167925,
        "meta_eccentricity": 0.02195348,
        "meta_inclination": 73.7495,
        "meta_ra_of_asc_node": 241.6775,
        "meta_arg_of_pericenter": 90.2413,
        "meta_mean_anomaly": 272.3884,
        "meta_ephemeris_type": 0,
        "meta_classification_type": "U",
        "meta_norad_cat_id": 34944,
        "meta_element_set_no": 999,
        "meta_rev_at_epoch": 64007,
        "meta_bstar": 0.00099492053,
        "meta_mean_motion_dot": 2.364e-05,
        "meta_mean_motion_ddot": 0,
        "tle_line1": "1 34944U 93036ADX 25341.39636608  .00002364  00000+0  99492-3 0  9991",
        "tle_line2": "2 34944  73.7495 241.6775 0219534  90.2413 272.3884 14.14167925640077"
      },
      "geometry": {
        "type": "Point",
        "coordinates": [
          93.14365115553915,
          -62.20430585974117
        ]
      }
    },
    {
      "type": "Feature",
      "properties": {
        "norad_id": 34946,
        "name": "COSMOS 2251 DEB",
        "group": "cosmos-2251-debris",
        "lat": -10.317177771975157,
        "lon": -12.89865090671271,
        "alt_km": 716.7843045738546,
        "timestamp": "2025-12-08T13:49:32.189741+00:00",
        "meta_object_name": "COSMOS 2251 DEB",
        "meta_object_id": "1993-036ADZ",
        "meta_epoch": "2025-12-08T07:18:20.444256",
        "meta_mean_motion": 14.61959947,
        "meta_eccentricity": 0.00488078,
        "meta_inclination": 74.0233,
        "meta_ra_of_asc_node": 350.6111,
        "meta_arg_of_pericenter": 129.2241,
        "meta_mean_anomaly": 231.3274,
        "meta_ephemeris_type": 0,
        "meta_classification_type": "U",
        "meta_norad_cat_id": 34946,
        "meta_element_set_no": 999,
        "meta_rev_at_epoch": 88144,
        "meta_bstar": 0.00082861214,
        "meta_mean_motion_dot": 4.194e-05,
        "meta_mean_motion_ddot": 0,
        "tle_line1": "1 34946U 93036ADZ 25342.30440329  .00004194  00000+0  82861-3 0  9993",
        "tle_line2": "2 34946  74.0233 350.6111 0048807 129.2241 231.3274 14.61959947881444"
      },
      "geometry": {
        "type": "Point",
        "coordinates": [
          -12.89865090671271,
          -10.317177771975157
        ]
      }
    },
    {
      "type": "Feature",
      "properties": {
        "norad_id": 34949,
        "name": "COSMOS 2251 DEB",
        "group": "cosmos-2251-debris",
        "lat": 63.10974647920087,
        "lon": 152.20411368124334,
        "alt_km": 696.3365008131341,
        "timestamp": "2025-12-08T13:49:32.189751+00:00",
        "meta_object_name": "COSMOS 2251 DEB",
        "meta_object_id": "1993-036AEC",
        "meta_epoch": "2025-12-07T03:18:23.961312",
        "meta_mean_motion": 14.73936848,
        "meta_eccentricity": 0.00804436,
        "meta_inclination": 74.018,
        "meta_ra_of_asc_node": 120.5995,
        "meta_arg_of_pericenter": 267.0595,
        "meta_mean_anomaly": 92.137,
        "meta_ephemeris_type": 0,
        "meta_classification_type": "U",
        "meta_norad_cat_id": 34949,
        "meta_element_set_no": 999,
        "meta_rev_at_epoch": 88279,
        "meta_bstar": 0.00083987468,
        "meta_mean_motion_dot": 5.775e-05,
        "meta_mean_motion_ddot": 0,
        "tle_line1": "1 34949U 93036AEC 25341.13777733  .00005775  00000+0  83987-3 0  9994",
        "tle_line2": "2 34949  74.0180 120.5995 0080443 267.0595  92.1370 14.73936848882794"
      },
      "geometry": {
        "type": "Point",
        "coordinates": [
          152.20411368124334,
          63.10974647920087
        ]
      }
    },
    {
      "type": "Feature",
      "properties": {
        "norad_id": 34953,
        "name": "COSMOS 2251 DEB",
        "group": "cosmos-2251-debris",
        "lat": 56.84573659627374,
        "lon": -170.36209652798513,
        "alt_km": 658.9783604409486,
        "timestamp": "2025-12-08T13:49:32.189762+00:00",
        "meta_object_name": "COSMOS 2251 DEB",
        "meta_object_id": "1993-036AEG",
        "meta_epoch": "2025-12-07T21:44:28.481280",
        "meta_mean_motion": 14.68892681,
        "meta_eccentricity": 0.00577897,
        "meta_inclination": 74.0931,
        "meta_ra_of_asc_node": 36.8144,
        "meta_arg_of_pericenter": 30.2874,
        "meta_mean_anomaly": 146.0062,
        "meta_ephemeris_type": 0,
        "meta_classification_type": "U",
        "meta_norad_cat_id": 34953,
        "meta_element_set_no": 999,
        "meta_rev_at_epoch": 88057,
        "meta_bstar": 0.0010643197,
        "meta_mean_motion_dot": 6.359e-05,
        "meta_mean_motion_ddot": 0,
        "tle_line1": "1 34953U 93036AEG 25341.90588520  .00006359  00000+0  10643-2 0  9995",
        "tle_line2": "2 34953  74.0931  36.8144 0057789  30.2874 146.0062 14.68892681880576"
      },
      "geometry": {
        "type": "Point",
        "coordinates": [
          -170.36209652798513,
          56.84573659627374
        ]
      }
    },
    {
      "type": "Feature",
      "properties": {
        "norad_id": 34955,
        "name": "COSMOS 2251 DEB",
        "group": "cosmos-2251-debris",
        "lat": 38.4469778305632,
        "lon": 61.842715580265605,
        "alt_km": 616.5056379786565,
        "timestamp": "2025-12-08T13:49:32.189772+00:00",
        "meta_object_name": "COSMOS 2251 DEB",
        "meta_object_id": "1993-036AEJ",
        "meta_epoch": "2025-12-03T01:58:24.293568",
        "meta_mean_motion": 15.00189355,
        "meta_eccentricity": 0.00783052,
        "meta_inclination": 74.0373,
        "meta_ra_of_asc_node": 266.1437,
        "meta_arg_of_pericenter": 338.174,
        "meta_mean_anomaly": 21.6115,
        "meta_ephemeris_type": 0,
        "meta_classification_type": "U",
        "meta_norad_cat_id": 34955,
        "meta_element_set_no": 999,
        "meta_rev_at_epoch": 89889,
        "meta_bstar": 0.0013091752,
        "meta_mean_motion_dot": 0.00017463,
        "meta_mean_motion_ddot": 0,
        "tle_line1": "1 34955U 93036AEJ 25337.08222562  .00017463  00000+0  13092-2 0  9991",
        "tle_line2": "2 34955  74.0373 266.1437 0078305 338.1740  21.6115 15.00189355898895"
      },
      "geometry": {
        "type": "Point",
        "coordinates": [
          61.842715580265605,
          38.4469778305632
        ]
      }
    }
  ]
}